[{"OBJECT_NAME":"SHIJIAN-6 04A (SJ-6 04A)","OBJECT_ID":"2010-051A","EPOCH":"2026-03-09T23:23:42.914400","MEAN_MOTION":15.16645177,"ECCENTRICITY":0.00182577,"INCLINATION":97.8386,"RA_OF_ASC_NODE":88.8025,"ARG_OF_PERICENTER":202.8454,"MEAN_ANOMALY":157.1968,"EPHEMERIS_TYPE":0,"CLASSIFICATION_TYPE":"U","NORAD_CAT_ID":37179,"ELEMENT_SET_NO":999,"REV_AT_EPOCH":84190,"BSTAR":0.00032742446,"MEAN_MOTION_DOT":6.359e-5,"MEAN_MOTION_DDOT":0},{"OBJECT_NAME":"FENGYUN 1C DEB","OBJECT_ID":"1999-025CMK","EPOCH":"2026-03-07T03:30:19.798272","MEAN_MOTION":15.19499855,"ECCENTRICITY":0.00275543,"INCLINATION":98.8642,"RA_OF_ASC_NODE":134.1649,"ARG_OF_PERICENTER":306.5016,"MEAN_ANOMALY":53.3676,"EPHEMERIS_TYPE":0,"CLASSIFICATION_TYPE":"U","NORAD_CAT_ID":31934,"ELEMENT_SET_NO":999,"REV_AT_EPOCH":62119,"BSTAR":0.0037988961,"MEAN_MOTION_DOT":0.0008222,"MEAN_MOTION_DDOT":0}]
